{"type": "FeatureCollection", "features": [ {"type": "Feature", "properties": {"norad_id": 44804, "name": "CARTOSAT-3", "group": "resource", "lat": 50.586783469748546, "lon": -115.74561712490578, "alt_km": 500.8911519839876, "timestamp": "2025-12-21T14:40:47.568474+00:00", "meta": {"OBJECT_NAME": "CARTOSAT-3", "OBJECT_ID": "2019-081A", "EPOCH": "2025-12-21T06:12:45.003744", "MEAN_MOTION": 15.19215132, "ECCENTRICITY": 0.00137978, "INCLINATION": 97.4574, "RA_OF_ASC_NODE": 54.7345, "ARG_OF_PERICENTER": 56.5147, "MEAN_ANOMALY": 303.7405, "EPHEMERIS_TYPE": 0, "CLASSIFICATION_TYPE": "U", "NORAD_CAT_ID": 44804, "ELEMENT_SET_NO": 999, "REV_AT_EPOCH": 33645, "BSTAR": 0.00010698039, "MEAN_MOTION_DOT": 2.188e-05, "MEAN_MOTION_DDOT": 0}, "tle": {"line1": "1 44804U 19081A   25355.25885421  .00002188  00000+0  10698-3 0  9999", "line2": "2 44804  97.4574  54.7345 0013797  56.5147 303.7405 15.19215132336454"}}, "geometry": {"type": "Point", "coordinates": [-115.74561712490578, 50.586783469748546]}}, {"type": "Feature", "properties": {"norad_id": 44819, "name": "GAOFEN-12 01", "group": "resource", "lat": 80.02151702581789, "lon": -49.63345523185253, "alt_km": 620.2197299466607, "timestamp": "2025-12-21T14:40:47.568484+00:00", "meta": {"OBJECT_NAME": "GAOFEN-12 01", "OBJECT_ID": "2019-082A", "EPOCH": "2025-12-21T06:11:36.262176", "MEAN_MOTION": 14.80666682, "ECCENTRICITY": 0.00018826, "INCLINATION": 97.8124, "RA_OF_ASC_NODE": 1.3155, "ARG_OF_PERICENTER": 192.0625, "MEAN_ANOMALY": 168.0543, "EPHEMERIS_TYPE": 0, "CLASSIFICATION_TYPE": "U", "NORAD_CAT_ID": 44819, "ELEMENT_SET_NO": 999, "REV_AT_EPOCH": 32776, "BSTAR": 5.806089e-05, "MEAN_MOTION_DOT": 3.95e-06, "MEAN_MOTION_DDOT": 0}, "tle": {"line1": "1 44819U 19082A   25355.25805859  .00000395  00000+0  58061-4 0  9998", "line2": "2 44819  97.8124   1.3155 0001882 192.0625 168.0543 14.80666682327767"}}, "geometry": {"type": "Point", "coordinates": [-49.63345523185253, 80.02151702581789]}}, {"type": "Feature", "properties": {"norad_id": 44873, "name": "CSG-1", "group": "resource", "lat": -61.39768027505814, "lon": -17.912989328810333, "alt_km": 630.6700041643107, "timestamp": "2025-12-21T14:40:47.568494+00:00", "meta": {"OBJECT_NAME": "CSG-1", "OBJECT_ID": "2019-092A", "EPOCH": "2025-12-21T07:06:31.418208", "MEAN_MOTION": 14.82151028, "ECCENTRICITY": 0.00014723, "INCLINATION": 97.8803, "RA_OF_ASC_NODE": 176.4914, "ARG_OF_PERICENTER": 85.7889, "MEAN_ANOMALY": 274.3493, "EPHEMERIS_TYPE": 0, "CLASSIFICATION_TYPE": "U", "NORAD_CAT_ID": 44873, "ELEMENT_SET_NO": 999, "REV_AT_EPOCH": 32512, "BSTAR": 6.5188782e-05, "MEAN_MOTION_DOT": 4.67e-06, "MEAN_MOTION_DDOT": 0}, "tle": {"line1": "1 44873U 19092A   25355.29619697  .00000467  00000+0  65189-4 0  9995", "line2": "2 44873  97.8803 176.4914 0001472  85.7889 274.3493 14.82151028325121"}}, "geometry": {"type": "Point", "coordinates": [-17.912989328810333, -61.39768027505814]}}, {"type": "Feature", "properties": {"norad_id": 46277, "name": "NEMO-HD", "group": "resource", "lat": 78.6124198513813, "lon": -86.3951600918416, "alt_km": 436.7299399431886, "timestamp": "2025-12-21T14:40:47.568504+00:00", "meta": {"OBJECT_NAME": "NEMO-HD", "OBJECT_ID": "2020-061F", "EPOCH": "2025-12-21T06:27:28.167264", "MEAN_MOTION": 15.40489229, "ECCENTRICITY": 0.00013342, "INCLINATION": 97.2199, "RA_OF_ASC_NODE": 54.2589, "ARG_OF_PERICENTER": 52.1488, "MEAN_ANOMALY": 307.9879, "EPHEMERIS_TYPE": 0, "CLASSIFICATION_TYPE": "U", "NORAD_CAT_ID": 46277, "ELEMENT_SET_NO": 999, "REV_AT_EPOCH": 29455, "BSTAR": 0.00019708433, "MEAN_MOTION_DOT": 7.908e-05, "MEAN_MOTION_DDOT": 0}, "tle": {"line1": "1 46277U 20061F   25355.26907601  .00007908  00000+0  19708-3 0  9997", "line2": "2 46277  97.2199  54.2589 0001334  52.1488 307.9879 15.40489229294559"}}, "geometry": {"type": "Point", "coordinates": [-86.3951600918416, 78.6124198513813]}}, {"type": "Feature", "properties": {"norad_id": 46984, "name": "SENTINEL-6A", "group": "resource", "lat": -30.148874871417878, "lon": 128.91392502272134, "alt_km": 1339.482275860928, "timestamp": "2025-12-21T14:40:47.568514+00:00", "meta": {"OBJECT_NAME": "SENTINEL-6A", "OBJECT_ID": "2020-086A", "EPOCH": "2025-12-21T03:36:37.810368", "MEAN_MOTION": 12.80930855, "ECCENTRICITY": 0.00077186, "INCLINATION": 66.0395, "RA_OF_ASC_NODE": 144.8386, "ARG_OF_PERICENTER": 269.3712, "MEAN_ANOMALY": 90.6418, "EPHEMERIS_TYPE": 0, "CLASSIFICATION_TYPE": "U", "NORAD_CAT_ID": 46984, "ELEMENT_SET_NO": 999, "REV_AT_EPOCH": 23752, "BSTAR": -2.7850621e-05, "MEAN_MOTION_DOT": -6.7e-07, "MEAN_MOTION_DDOT": 0}, "tle": {"line1": "1 46984U 20086A   25355.15043762 -.00000067  00000+0 -27851-4 0  9996", "line2": "2 46984  66.0395 144.8386 0007718 269.3712  90.6418 12.80930855237527"}}, "geometry": {"type": "Point", "coordinates": [128.91392502272134, -30.148874871417878]}}, {"type": "Feature", "properties": {"norad_id": 48079, "name": "GAOFEN-12 02", "group": "resource", "lat": 80.12281565636098, "lon": -136.6973098631067, "alt_km": 617.3065072386507, "timestamp": "2025-12-21T14:40:47.568524+00:00", "meta": {"OBJECT_NAME": "GAOFEN-12 02", "OBJECT_ID": "2021-026A", "EPOCH": "2025-12-21T06:08:22.947360", "MEAN_MOTION": 14.80684539, "ECCENTRICITY": 0.00036014, "INCLINATION": 97.9854, "RA_OF_ASC_NODE": 349.2212, "ARG_OF_PERICENTER": 84.0668, "MEAN_ANOMALY": 276.0955, "EPHEMERIS_TYPE": 0, "CLASSIFICATION_TYPE": "U", "NORAD_CAT_ID": 48079, "ELEMENT_SET_NO": 999, "REV_AT_EPOCH": 25543, "BSTAR": 5.8645413e-05, "MEAN_MOTION_DOT": 3.98e-06, "MEAN_MOTION_DDOT": 0}, "tle": {"line1": "1 48079U 21026A   25355.25582115  .00000398  00000+0  58645-4 0  9999", "line2": "2 48079  97.9854 349.2212 0003601  84.0668 276.0955 14.80684539255438"}}, "geometry": {"type": "Point", "coordinates": [-136.6973098631067, 80.12281565636098]}}, {"type": "Feature", "properties": {"norad_id": 48268, "name": "PLEIADES NEO 3", "group": "resource", "lat": -14.35403564055468, "lon": -114.1092432023341, "alt_km": 628.963742635955, "timestamp": "2025-12-21T14:40:47.568534+00:00", "meta": {"OBJECT_NAME": "PLEIADES NEO 3", "OBJECT_ID": "2021-034A", "EPOCH": "2025-12-21T05:42:05.658336", "MEAN_MOTION": 14.8167398, "ECCENTRICITY": 0.0001367, "INCLINATION": 97.8951, "RA_OF_ASC_NODE": 67.5571, "ARG_OF_PERICENTER": 91.4531, "MEAN_ANOMALY": 268.6838, "EPHEMERIS_TYPE": 0, "CLASSIFICATION_TYPE": "U", "NORAD_CAT_ID": 48268, "ELEMENT_SET_NO": 999, "REV_AT_EPOCH": 25130, "BSTAR": 5.9938339e-05, "MEAN_MOTION_DOT": 4.2e-06, "MEAN_MOTION_DDOT": 0}, "tle": {"line1": "1 48268U 21034A   25355.23756549  .00000420  00000+0  59938-4 0  9992", "line2": "2 48268  97.8951  67.5571 0001367  91.4531 268.6838 14.81673980251309"}}, "geometry": {"type": "Point", "coordinates": [-114.1092432023341, -14.35403564055468]}}, {"type": "Feature", "properties": {"norad_id": 49070, "name": "PLEIADES NEO 4", "group": "resource", "lat": 14.148951870499095, "lon": 65.9169770321775, "alt_km": 624.7788108328468, "timestamp": "2025-12-21T14:40:47.568544+00:00", "meta": {"OBJECT_NAME": "PLEIADES NEO 4", "OBJECT_ID": "2021-073E", "EPOCH": "2025-12-20T17:32:43.601280", "MEAN_MOTION": 14.81672177, "ECCENTRICITY": 0.00013249, "INCLINATION": 97.8951, "RA_OF_ASC_NODE": 67.0538, "ARG_OF_PERICENTER": 89.6187, "MEAN_ANOMALY": 270.5178, "EPHEMERIS_TYPE": 0, "CLASSIFICATION_TYPE": "U", "NORAD_CAT_ID": 49070, "ELEMENT_SET_NO": 999, "REV_AT_EPOCH": 23494, "BSTAR": -3.6645539e-05, "MEAN_MOTION_DOT": -3.4e-06, "MEAN_MOTION_DDOT": 0}, "tle": {"line1": "1 49070U 21073E   25354.73106020 -.00000340  00000+0 -36646-4 0  9998", "line2": "2 49070  97.8951  67.0538 0001324  89.6187 270.5178 14.81672177234945"}}, "geometry": {"type": "Point", "coordinates": [65.9169770321775, 14.148951870499095]}}, {"type": "Feature", "properties": {"norad_id": 49260, "name": "LANDSAT 9", "group": "resource", "lat": -32.058742642383656, "lon": 68.78039220794751, "alt_km": 709.0310857502973, "timestamp": "2025-12-21T14:40:47.568554+00:00", "meta": {"OBJECT_NAME": "LANDSAT 9", "OBJECT_ID": "2021-088A", "EPOCH": "2025-12-21T03:17:30.808032", "MEAN_MOTION": 14.57105787, "ECCENTRICITY": 0.0001103, "INCLINATION": 98.2083, "RA_OF_ASC_NODE": 63.1261, "ARG_OF_PERICENTER": 91.6147, "MEAN_ANOMALY": 268.5177, "EPHEMERIS_TYPE": 0, "CLASSIFICATION_TYPE": "U", "NORAD_CAT_ID": 49260, "ELEMENT_SET_NO": 999, "REV_AT_EPOCH": 22507, "BSTAR": 7.8218881e-05, "MEAN_MOTION_DOT": 3.07e-06, "MEAN_MOTION_DDOT": 0}, "tle": {"line1": "1 49260U 21088A   25355.13716213  .00000307  00000+0  78219-4 0  9994", "line2": "2 49260  98.2083  63.1261 0001103  91.6147 268.5177 14.57105787225072"}}, "geometry": {"type": "Point", "coordinates": [68.78039220794751, -32.058742642383656]}}, {"type": "Feature", "properties": {"norad_id": 51444, "name": "CSG-2", "group": "resource", "lat": 61.28590837603237, "lon": 162.15576435564188, "alt_km": 615.6465100154273, "timestamp": "2025-12-21T14:40:47.568564+00:00", "meta": {"OBJECT_NAME": "CSG-2", "OBJECT_ID": "2022-008A", "EPOCH": "2025-12-21T06:17:54.803904", "MEAN_MOTION": 14.82150469, "ECCENTRICITY": 0.00014499, "INCLINATION": 97.8798, "RA_OF_ASC_NODE": 176.4564, "ARG_OF_PERICENTER": 84.8007, "MEAN_ANOMALY": 275.3372, "EPHEMERIS_TYPE": 0, "CLASSIFICATION_TYPE": "U", "NORAD_CAT_ID": 51444, "ELEMENT_SET_NO": 999, "REV_AT_EPOCH": 21023, "BSTAR": 3.280708e-05, "MEAN_MOTION_DOT": 2.09e-06, "MEAN_MOTION_DDOT": 0}, "tle": {"line1": "1 51444U 22008A   25355.26243986  .00000209  00000+0  32807-4 0  9994", "line2": "2 51444  97.8798 176.4564 0001449  84.8007 275.3372 14.82150469210233"}}, "geometry": {"type": "Point", "coordinates": [162.15576435564188, 61.28590837603237]}}]}